[{"OBJECT_NAME":"STARLINK-30423","OBJECT_ID":"2023-141D","EPOCH":"2026-03-09T21:06:26.375616","MEAN_MOTION":15.30190777,"ECCENTRICITY":0.00011486,"INCLINATION":53.1597,"RA_OF_ASC_NODE":283.2756,"ARG_OF_PERICENTER":80.3701,"MEAN_ANOMALY":279.7429,"EPHEMERIS_TYPE":0,"CLASSIFICATION_TYPE":"U","NORAD_CAT_ID":57843,"ELEMENT_SET_NO":999,"REV_AT_EPOCH":14035,"BSTAR":3.1326852e-5,"MEAN_MOTION_DOT":5.69e-6,"MEAN_MOTION_DDOT":0},{"OBJECT_NAME":"NUSAT-50 (NANCY ROMAN)","OBJECT_ID":"2024-149AB","EPOCH":"2026-03-09T19:15:16.765632","MEAN_MOTION":15.29713355,"ECCENTRICITY":0.00025229,"INCLINATION":97.3817,"RA_OF_ASC_NODE":150.7693,"ARG_OF_PERICENTER":238.0469,"MEAN_ANOMALY":122.0527,"EPHEMERIS_TYPE":0,"CLASSIFICATION_TYPE":"U","NORAD_CAT_ID":60493,"ELEMENT_SET_NO":999,"REV_AT_EPOCH":8693,"BSTAR":0.0004225155,"MEAN_MOTION_DOT":0.00012094,"MEAN_MOTION_DDOT":0}]
