STARLINK-30423          
1 57843U 23141D   26068.87947193  .00000569  00000+0  31327-4 0  9997
2 57843  53.1597 283.2756 0001149  80.3701 279.7429 15.30190777140359
NUSAT-50 (NANCY ROMAN)  
1 60493U 24149AB  26068.80227738  .00012094  00000+0  42252-3 0  9994
2 60493  97.3817 150.7693 0002523 238.0469 122.0527 15.29713355 86930
